start=new Date('2022-04-25T00:00:00.000Z').valueOf();
sats=[{"CLASSIFICATION_TYPE":"U","COUNTRY_CODE":"US","MEAN_ANOMALY":"79.5974","INCLINATION":"53.2151","EPOCH":"2022-04-24T20:00:01.000224","MEAN_ELEMENT_THEORY":"SGP4","OBJECT_NAME":"STARLINK-3735","MEAN_MOTION_DOT":"-0.00064792","APOAPSIS":"350.488","PERIAPSIS":"348.765","MEAN_MOTION_DDOT":"0.0000000000000","ELEMENT_SET_NO":"999","ARG_OF_PERICENTER":"112.9779","NORAD_CAT_ID":"52116","GP_ID":"201941650","BSTAR":"-0.00045986000000","REF_FRAME":"TEME","CENTER_NAME":"EARTH","RCS_SIZE":"LARGE","ECCENTRICITY":"0.00012810","SITE":"AFETR","MEAN_MOTION":"15.73246830","LAUNCH_DATE":"2022-03-19","EPHEMERIS_TYPE":"0","REV_AT_EPOCH":"701","DECAY_DATE":null,"OBJECT_ID":"2022-029AE","TLE_LINE2":"2 52116  53.2151 322.7635 0001281 112.9779  79.5974 15.73246830  7018","RA_OF_ASC_NODE":"322.7635","TLE_LINE1":"1 52116U 22029AE  22114.83334491 -.00064792  00000-0 -45986-3 0  9990","FILE":"3414326","OBJECT_TYPE":"PAYLOAD","SEMIMAJOR_AXIS":"6727.762","PERIOD":"91.530","TIME_SYSTEM":"UTC"},{"CLASSIFICATION_TYPE":"U","INCLINATION":"53.2149","MEAN_ANOMALY":"79.8464","COUNTRY_CODE":"US","OBJECT_NAME":"STARLINK-3738","EPOCH":"2022-04-24T20:00:01.000224","MEAN_ELEMENT_THEORY":"SGP4","APOAPSIS":"350.553","MEAN_MOTION_DOT":"-0.00054360","ELEMENT_SET_NO":"999","MEAN_MOTION_DDOT":"0.0000000000000","PERIAPSIS":"348.828","BSTAR":"-0.00038500000000","GP_ID":"201941633","NORAD_CAT_ID":"52117","ARG_OF_PERICENTER":"115.6243","RCS_SIZE":"LARGE","CENTER_NAME":"EARTH","REF_FRAME":"TEME","ECCENTRICITY":"0.00012820","MEAN_MOTION":"15.73224351","SITE":"AFETR","DECAY_DATE":null,"REV_AT_EPOCH":"702","LAUNCH_DATE":"2022-03-19","EPHEMERIS_TYPE":"0","TLE_LINE2":"2 52117  53.2149 322.7571 0001282 115.6243  79.8464 15.73224351  7024","OBJECT_ID":"2022-029AF","FILE":"3414324","TLE_LINE1":"1 52117U 22029AF  22114.83334491 -.00054360  00000-0 -38500-3 0  9995","RA_OF_ASC_NODE":"322.7571","SEMIMAJOR_AXIS":"6727.826","OBJECT_TYPE":"PAYLOAD","PERIOD":"91.532","TIME_SYSTEM":"UTC"},{"MEAN_MOTION":"15.73228988","SITE":"AFETR","ECCENTRICITY":"0.00013850","TLE_LINE2":"2 52118  53.2152 323.9964 0001385 127.3439  89.6946 15.73228988  3704","OBJECT_ID":"2022-029AG","DECAY_DATE":null,"REV_AT_EPOCH":"370","LAUNCH_DATE":"2022-03-19","EPHEMERIS_TYPE":"0","SEMIMAJOR_AXIS":"6727.813","OBJECT_TYPE":"PAYLOAD","FILE":"3414186","TLE_LINE1":"1 52118U 22029AG  22114.58334491 -.00035551  00000-0 -24964-3 0  9998","RA_OF_ASC_NODE":"323.9964","TIME_SYSTEM":"UTC","PERIOD":"91.531","INCLINATION":"53.2152","COUNTRY_CODE":"US","MEAN_ANOMALY":"89.6946","CLASSIFICATION_TYPE":"U","APOAPSIS":"350.609","MEAN_MOTION_DOT":"-0.00035551","OBJECT_NAME":"STARLINK-3743","MEAN_ELEMENT_THEORY":"SGP4","EPOCH":"2022-04-24T14:00:01.000224","MEAN_MOTION_DDOT":"0.0000000000000","ELEMENT_SET_NO":"999","PERIAPSIS":"348.746","RCS_SIZE":"LARGE","CENTER_NAME":"EARTH","REF_FRAME":"TEME","GP_ID":"201938861","BSTAR":"-0.00024964000000","NORAD_CAT_ID":"52118","ARG_OF_PERICENTER":"127.3439"},{"OBJECT_NAME":"STARLINK-3558","MEAN_ELEMENT_THEORY":"SGP4","EPOCH":"2022-04-24T14:00:01.000224","APOAPSIS":"350.630","MEAN_MOTION_DOT":"-0.00021317","CLASSIFICATION_TYPE":"U","INCLINATION":"53.2150","COUNTRY_CODE":"US","MEAN_ANOMALY":"94.5441","GP_ID":"201938280","BSTAR":"-0.00014772000000","ARG_OF_PERICENTER":"125.3446","NORAD_CAT_ID":"52119","CENTER_NAME":"EARTH","RCS_SIZE":"LARGE","REF_FRAME":"TEME","ELEMENT_SET_NO":"999","MEAN_MOTION_DDOT":"0.0000000000000","PERIAPSIS":"348.778","REV_AT_EPOCH":"370","DECAY_DATE":null,"LAUNCH_DATE":"2022-03-19","EPHEMERIS_TYPE":"0","OBJECT_ID":"2022-029AH","TLE_LINE2":"2 52119  53.2150 323.9899 0001376 125.3446  94.5441 15.73219720  3705","ECCENTRICITY":"0.00013760","SITE":"AFETR","MEAN_MOTION":"15.73219720","PERIOD":"91.532","TIME_SYSTEM":"UTC","TLE_LINE1":"1 52119U 22029AH  22114.58334491 -.00021317  00000-0 -14772-3 0  9990","FILE":"3414186","RA_OF_ASC_NODE":"323.9899","SEMIMAJOR_AXIS":"6727.839","OBJECT_TYPE":"PAYLOAD"},{"TIME_SYSTEM":"UTC","PERIOD":"91.532","OBJECT_TYPE":"PAYLOAD","SEMIMAJOR_AXIS":"6727.848","RA_OF_ASC_NODE":"323.9942","TLE_LINE1":"1 52120U 22029AJ  22114.58334491 -.00013307  00000-0 -90481-4 0  9994","FILE":"3414186","OBJECT_ID":"2022-029AJ","TLE_LINE2":"2 52120  53.2152 323.9942 0001282 126.1571  92.0157 15.73216393  3702","LAUNCH_DATE":"2022-03-19","EPHEMERIS_TYPE":"0","REV_AT_EPOCH":"370","DECAY_DATE":null,"SITE":"AFETR","MEAN_MOTION":"15.73216393","ECCENTRICITY":"0.00012820","REF_FRAME":"TEME","CENTER_NAME":"EARTH","RCS_SIZE":"LARGE","ARG_OF_PERICENTER":"126.1571","NORAD_CAT_ID":"52120","BSTAR":"-0.00009048100000","GP_ID":"201938447","PERIAPSIS":"348.851","MEAN_MOTION_DDOT":"0.0000000000000","ELEMENT_SET_NO":"999","MEAN_MOTION_DOT":"-0.00013307","APOAPSIS":"350.576","EPOCH":"2022-04-24T14:00:01.000224","MEAN_ELEMENT_THEORY":"SGP4","OBJECT_NAME":"STARLINK-3534","MEAN_ANOMALY":"92.0157","COUNTRY_CODE":"US","INCLINATION":"53.2152","CLASSIFICATION_TYPE":"U"},{"MEAN_MOTION_DOT":"-0.00041772","APOAPSIS":"350.705","EPOCH":"2022-04-24T14:00:01.000224","MEAN_ELEMENT_THEORY":"SGP4","OBJECT_NAME":"STARLINK-3678","MEAN_ANOMALY":"95.3377","COUNTRY_CODE":"US","INCLINATION":"53.2151","CLASSIFICATION_TYPE":"U","REF_FRAME":"TEME","CENTER_NAME":"EARTH","RCS_SIZE":"LARGE","NORAD_CAT_ID":"52121","ARG_OF_PERICENTER":"125.6598","BSTAR":"-0.00029428000000","GP_ID":"201913296","PERIAPSIS":"348.637","ELEMENT_SET_NO":"999","MEAN_MOTION_DDOT":"0.0000000000000","TLE_LINE2":"2 52121  53.2151 323.9875 0001537 125.6598  95.3377 15.73231336  6980","OBJECT_ID":"2022-029AK","LAUNCH_DATE":"2022-03-19","EPHEMERIS_TYPE":"0","DECAY_DATE":null,"REV_AT_EPOCH":"698","MEAN_MOTION":"15.73231336","SITE":"AFETR","ECCENTRICITY":"0.00015370","TIME_SYSTEM":"UTC","PERIOD":"91.531","OBJECT_TYPE":"PAYLOAD","SEMIMAJOR_AXIS":"6727.806","RA_OF_ASC_NODE":"323.9875","FILE":"3414172","TLE_LINE1":"1 52121U 22029AK  22114.58334491 -.00041772  00000-0 -29428-3 0  9994"},{"ARG_OF_PERICENTER":"120.8272","NORAD_CAT_ID":"52122","BSTAR":"-0.00014839000000","GP_ID":"201938530","REF_FRAME":"TEME","RCS_SIZE":"LARGE","CENTER_NAME":"EARTH","PERIAPSIS":"348.793","MEAN_MOTION_DDOT":"0.0000000000000","ELEMENT_SET_NO":"999","EPOCH":"2022-04-24T14:00:01.000224","MEAN_ELEMENT_THEORY":"SGP4","OBJECT_NAME":"STARLINK-3726","MEAN_MOTION_DOT":"-0.00021428","APOAPSIS":"350.502","CLASSIFICATION_TYPE":"U","COUNTRY_CODE":"US","MEAN_ANOMALY":"98.4819","INCLINATION":"53.2151","PERIOD":"91.531","TIME_SYSTEM":"UTC","RA_OF_ASC_NODE":"323.9915","FILE":"3414186","TLE_LINE1":"1 52122U 22029AL  22114.58334491 -.00021428  00000-0 -14839-3 0  9991","OBJECT_TYPE":"PAYLOAD","SEMIMAJOR_AXIS":"6727.782","EPHEMERIS_TYPE":"0","LAUNCH_DATE":"2022-03-19","DECAY_DATE":null,"REV_AT_EPOCH":"370","TLE_LINE2":"2 52122  53.2151 323.9915 0001270 120.8272  98.4819 15.73239617  3708","OBJECT_ID":"2022-029AL","ECCENTRICITY":"0.00012700","MEAN_MOTION":"15.73239617","SITE":"AFETR"},{"DECAY_DATE":null,"REV_AT_EPOCH":"702","LAUNCH_DATE":"2022-03-19","EPHEMERIS_TYPE":"0","TLE_LINE2":"2 52123  53.2149 322.7496 0001238 109.3262  89.5817 15.73230550  7027","OBJECT_ID":"2022-029AM","ECCENTRICITY":"0.00012380","MEAN_MOTION":"15.73230550","SITE":"AFETR","PERIOD":"91.531","TIME_SYSTEM":"UTC","FILE":"3414341","TLE_LINE1":"1 52123U 22029AM  22114.83334491 -.00048756  00000-0 -34453-3 0  9997","RA_OF_ASC_NODE":"322.7496","SEMIMAJOR_AXIS":"6727.808","OBJECT_TYPE":"PAYLOAD","OBJECT_NAME":"STARLINK-3725","EPOCH":"2022-04-24T20:00:01.000224","MEAN_ELEMENT_THEORY":"SGP4","APOAPSIS":"350.506","MEAN_MOTION_DOT":"-0.00048756","CLASSIFICATION_TYPE":"U","INCLINATION":"53.2149","COUNTRY_CODE":"US","MEAN_ANOMALY":"89.5817","BSTAR":"-0.00034453000000","GP_ID":"201941935","NORAD_CAT_ID":"52123","ARG_OF_PERICENTER":"109.3262","RCS_SIZE":"LARGE","CENTER_NAME":"EARTH","REF_FRAME":"TEME","ELEMENT_SET_NO":"999","MEAN_MOTION_DDOT":"0.0000000000000","PERIAPSIS":"348.840"},{"CLASSIFICATION_TYPE":"U","INCLINATION":"53.2153","COUNTRY_CODE":"US","MEAN_ANOMALY":"96.7238","OBJECT_NAME":"STARLINK-3684","EPOCH":"2022-04-24T14:00:01.000224","MEAN_ELEMENT_THEORY":"SGP4","APOAPSIS":"350.710","MEAN_MOTION_DOT":"-0.00006489","ELEMENT_SET_NO":"999","MEAN_MOTION_DDOT":"0.0000000000000","PERIAPSIS":"348.692","GP_ID":"201938779","BSTAR":"-0.00004180700000","NORAD_CAT_ID":"52124","ARG_OF_PERICENTER":"123.7074","CENTER_NAME":"EARTH","RCS_SIZE":"LARGE","REF_FRAME":"TEME","ECCENTRICITY":"0.00015000","SITE":"AFETR","MEAN_MOTION":"15.73220745","REV_AT_EPOCH":"370","DECAY_DATE":null,"LAUNCH_DATE":"2022-03-19","EPHEMERIS_TYPE":"0","OBJECT_ID":"2022-029AN","TLE_LINE2":"2 52124  53.2153 323.9895 0001500 123.7074  96.7238 15.73220745  3705","TLE_LINE1":"1 52124U 22029AN  22114.58334491 -.00006489  00000-0 -41807-4 0  9999","FILE":"3414186","RA_OF_ASC_NODE":"323.9895","SEMIMAJOR_AXIS":"6727.836","OBJECT_TYPE":"PAYLOAD","PERIOD":"91.532","TIME_SYSTEM":"UTC"},{"EPHEMERIS_TYPE":"0","LAUNCH_DATE":"2022-03-19","DECAY_DATE":null,"REV_AT_EPOCH":"702","TLE_LINE2":"2 52125  53.2149 322.7482 0001112 117.0992  82.3788 15.73223912  7023","OBJECT_ID":"2022-029AP","ECCENTRICITY":"0.00011120","MEAN_MOTION":"15.73223912","SITE":"AFETR","PERIOD":"91.532","TIME_SYSTEM":"UTC","RA_OF_ASC_NODE":"322.7482","FILE":"3414342","TLE_LINE1":"1 52125U 22029AP  22114.83334491 -.00081076  00000-0 -57825-3 0  9999","OBJECT_TYPE":"PAYLOAD","SEMIMAJOR_AXIS":"6727.827","MEAN_ELEMENT_THEORY":"SGP4","EPOCH":"2022-04-24T20:00:01.000224","OBJECT_NAME":"STARLINK-3727","MEAN_MOTION_DOT":"-0.00081076","APOAPSIS":"350.440","CLASSIFICATION_TYPE":"U","MEAN_ANOMALY":"82.3788","COUNTRY_CODE":"US","INCLINATION":"53.2149","ARG_OF_PERICENTER":"117.0992","NORAD_CAT_ID":"52125","BSTAR":"-0.00057825000000","GP_ID":"201942441","REF_FRAME":"TEME","RCS_SIZE":"LARGE","CENTER_NAME":"EARTH","PERIAPSIS":"348.944","MEAN_MOTION_DDOT":"0.0000000000000","ELEMENT_SET_NO":"999"}];
